*******************************************************************************
Ephemeris / WWW_USER Mon Mar 24 08:41:59 2025 Pasadena, USA      / Horizons    
*******************************************************************************
Target body name: (2019 AK3)                      {source: JPL#8}
Center body name: Earth (399)                     {source: DE441}
Center-site name: Mauna Kea
*******************************************************************************
Start time      : A.D. 2018-Sep-25 04:25:00.0000 UT      
Stop  time      : A.D. 2018-Sep-25 16:02:00.0000 UT      
Step-size       : 1 minutes
*******************************************************************************
Target pole/equ : undefined
Target radii    : undefined                                                    
Center geodetic : 204.5278, 19.8260847, 4.21024   {E-lon(deg),Lat(deg),Alt(km)}
Center cylindric: 204.5278, 6006.35451, 2151.0229 {E-lon(deg),Dxy(km),Dz(km)}
Center pole/equ : ITRF93                          {East-longitude positive}
Center radii    : 6378.137, 6378.137, 6356.752 km {Equator_a, b, pole_c}       
Target primary  : Sun
Vis. interferer : MOON (R_eq= 1737.400) km        {source: DE441}
Rel. light bend : Sun                             {source: DE441}
Rel. lght bnd GM: 1.3271E+11 km^3/s^2                                          
Small-body perts: Yes                             {source: SB441-N16}
Atmos refraction: NO (AIRLESS)
RA format       : HMS
Time format     : CAL 
Calendar mode   : Mixed Julian/Gregorian
RTS-only print  : NO       
EOP file        : eop.250321.p250617                                           
EOP coverage    : DATA-BASED 1962-JAN-20 TO 2025-MAR-21. PREDICTS-> 2025-JUN-16
Units conversion: 1 au= 149597870.700 km, c= 299792.458 km/s, 1 day= 86400.0 s 
Table cut-offs 1: Elevation (-90.0deg=NO ),Airmass (>38.000=NO), Daylight (YES)
Table cut-offs 2: Solar elongation (  0.0,180.0=NO ),Local Hour Angle( 0.0=NO )
Table cut-offs 3: RA/DEC angular rate (     0.0=NO )                           
*******************************************************************************
Initial IAU76/J2000 heliocentric ecliptic osculating elements (au, days, deg.):
  EPOCH=  2458490.5 ! 2019-Jan-07.00 (TDB)         Residual RMS= .10027        
   EC= .4460441123274964   QR= .8736665173848456   TP= 2458534.5649506859      
   OM= 293.7231565418804   W=  230.0622942544228   IN= 4.899135051513321       
  Equivalent ICRF heliocentric cartesian coordinates (au, au/d):
   X=-2.869453413579581E-01  Y= 8.924440573967301E-01  Z= 3.991223626471717E-01
  VX=-1.652766681412374E-02 VY=-9.271695064707189E-03 VZ=-5.840432387800149E-03
Asteroid physical parameters (km, seconds, rotational period in hours):        
   GM= n.a.                RAD= n.a.               ROTPER= n.a.                
   H= 27.                  G= .150                 B-V= n.a.                   
                           ALBEDO= n.a.            STYP= n.a.                  
*******************************************************************************
 Date__(UT)__HR:MN     R.A._________(ICRF)_________DEC
******************************************************
$$SOE
 2018-Sep-25 04:25 Cm  04 48 33.827904 +29 46 25.52960
 2018-Sep-25 04:26 Cm  04 48 33.901422 +29 46 25.79596
 2018-Sep-25 04:27 Cm  04 48 33.974935 +29 46 26.06239
 2018-Sep-25 04:28 Cm  04 48 34.048443 +29 46 26.32888
 2018-Sep-25 04:29 Cm  04 48 34.121947 +29 46 26.59544
 2018-Sep-25 04:30 Cm  04 48 34.195447 +29 46 26.86206
 2018-Sep-25 04:31 Cm  04 48 34.268942 +29 46 27.12875
 2018-Sep-25 04:32 Cm  04 48 34.342432 +29 46 27.39550
 2018-Sep-25 04:33 Cm  04 48 34.415918 +29 46 27.66232
 2018-Sep-25 04:34 Cm  04 48 34.489399 +29 46 27.92920
 2018-Sep-25 04:35 Cm  04 48 34.562876 +29 46 28.19615
 2018-Sep-25 04:36 Cm  04 48 34.636347 +29 46 28.46316
 2018-Sep-25 04:37 Cm  04 48 34.709814 +29 46 28.73024
 2018-Sep-25 04:38 Nm  04 48 34.783276 +29 46 28.99738
 2018-Sep-25 04:39 Nm  04 48 34.856733 +29 46 29.26459
 2018-Sep-25 04:40 Nm  04 48 34.930185 +29 46 29.53186
 2018-Sep-25 04:41 Nm  04 48 35.003633 +29 46 29.79919
 2018-Sep-25 04:42 Nm  04 48 35.077075 +29 46 30.06659
 2018-Sep-25 04:43 Nm  04 48 35.150512 +29 46 30.33405
 2018-Sep-25 04:44 Nm  04 48 35.223944 +29 46 30.60158
 2018-Sep-25 04:45 Nm  04 48 35.297371 +29 46 30.86917
 2018-Sep-25 04:46 Nm  04 48 35.370792 +29 46 31.13682
 2018-Sep-25 04:47 Nm  04 48 35.444209 +29 46 31.40453
 2018-Sep-25 04:48 Nm  04 48 35.517620 +29 46 31.67231
 2018-Sep-25 04:49 Nm  04 48 35.591026 +29 46 31.94015
 2018-Sep-25 04:50 Nm  04 48 35.664426 +29 46 32.20806
 2018-Sep-25 04:51 Nm  04 48 35.737821 +29 46 32.47602
 2018-Sep-25 04:52 Nm  04 48 35.811210 +29 46 32.74405
 2018-Sep-25 04:53 Nm  04 48 35.884594 +29 46 33.01214
 2018-Sep-25 04:54 Nm  04 48 35.957973 +29 46 33.28029
 2018-Sep-25 04:55 Nm  04 48 36.031346 +29 46 33.54851
 2018-Sep-25 04:56 Nm  04 48 36.104713 +29 46 33.81679
 2018-Sep-25 04:57 Nm  04 48 36.178074 +29 46 34.08512
 2018-Sep-25 04:58 Nm  04 48 36.251430 +29 46 34.35352
 2018-Sep-25 04:59 Nm  04 48 36.324780 +29 46 34.62199
 2018-Sep-25 05:00 Nm  04 48 36.398125 +29 46 34.89051
 2018-Sep-25 05:01 Nm  04 48 36.471463 +29 46 35.15909
 2018-Sep-25 05:02 Nm  04 48 36.544796 +29 46 35.42774
 2018-Sep-25 05:03 Nm  04 48 36.618122 +29 46 35.69644
 2018-Sep-25 05:04 Am  04 48 36.691443 +29 46 35.96521
 2018-Sep-25 05:05 Am  04 48 36.764757 +29 46 36.23403
 2018-Sep-25 05:06 Am  04 48 36.838066 +29 46 36.50292
 2018-Sep-25 05:07 Am  04 48 36.911369 +29 46 36.77186
 2018-Sep-25 05:08 Am  04 48 36.984665 +29 46 37.04087
 2018-Sep-25 05:09 Am  04 48 37.057955 +29 46 37.30994
 2018-Sep-25 05:10 Am  04 48 37.131239 +29 46 37.57906
 2018-Sep-25 05:11 Am  04 48 37.204517 +29 46 37.84825
 2018-Sep-25 05:12 Am  04 48 37.277788 +29 46 38.11749
 2018-Sep-25 05:13 Am  04 48 37.351053 +29 46 38.38679
 2018-Sep-25 05:14 Am  04 48 37.424312 +29 46 38.65615
 2018-Sep-25 05:15 Am  04 48 37.497564 +29 46 38.92557
 2018-Sep-25 05:16 Am  04 48 37.570810 +29 46 39.19505
 2018-Sep-25 05:17 Am  04 48 37.644049 +29 46 39.46459
 2018-Sep-25 05:18 Am  04 48 37.717282 +29 46 39.73418
 2018-Sep-25 05:19 Am  04 48 37.790508 +29 46 40.00384
 2018-Sep-25 05:20 Am  04 48 37.863728 +29 46 40.27355
 2018-Sep-25 05:21 Am  04 48 37.936941 +29 46 40.54332
 2018-Sep-25 05:22 Am  04 48 38.010147 +29 46 40.81314
 2018-Sep-25 05:23 Am  04 48 38.083347 +29 46 41.08302
 2018-Sep-25 05:24 Am  04 48 38.156540 +29 46 41.35296
 2018-Sep-25 05:25 Am  04 48 38.229725 +29 46 41.62296
 2018-Sep-25 05:26 Am  04 48 38.302904 +29 46 41.89301
 2018-Sep-25 05:27 Am  04 48 38.376077 +29 46 42.16312
 2018-Sep-25 05:28 Am  04 48 38.449242 +29 46 42.43329
 2018-Sep-25 05:29 Am  04 48 38.522400 +29 46 42.70351
 2018-Sep-25 05:30  m  04 48 38.595551 +29 46 42.97379
 2018-Sep-25 05:31  m  04 48 38.668696 +29 46 43.24412
 2018-Sep-25 05:32  m  04 48 38.741833 +29 46 43.51451
 2018-Sep-25 05:33  m  04 48 38.814963 +29 46 43.78495
 2018-Sep-25 05:34  m  04 48 38.888086 +29 46 44.05545
 2018-Sep-25 05:35  m  04 48 38.961201 +29 46 44.32601
 2018-Sep-25 05:36  m  04 48 39.034310 +29 46 44.59661
 2018-Sep-25 05:37  m  04 48 39.107411 +29 46 44.86728
 2018-Sep-25 05:38  m  04 48 39.180505 +29 46 45.13799
 2018-Sep-25 05:39  m  04 48 39.253591 +29 46 45.40877
 2018-Sep-25 05:40  m  04 48 39.326670 +29 46 45.67959
 2018-Sep-25 05:41  m  04 48 39.399742 +29 46 45.95047
 2018-Sep-25 05:42  m  04 48 39.472806 +29 46 46.22140
 2018-Sep-25 05:43  m  04 48 39.545863 +29 46 46.49239
 2018-Sep-25 05:44  m  04 48 39.618912 +29 46 46.76342
 2018-Sep-25 05:45  m  04 48 39.691953 +29 46 47.03452
 2018-Sep-25 05:46  m  04 48 39.764987 +29 46 47.30566
 2018-Sep-25 05:47  m  04 48 39.838014 +29 46 47.57686
 2018-Sep-25 05:48  m  04 48 39.911032 +29 46 47.84810
 2018-Sep-25 05:49  m  04 48 39.984043 +29 46 48.11940
 2018-Sep-25 05:50  m  04 48 40.057046 +29 46 48.39076
 2018-Sep-25 05:51  m  04 48 40.130042 +29 46 48.66216
 2018-Sep-25 05:52  m  04 48 40.203029 +29 46 48.93361
 2018-Sep-25 05:53  m  04 48 40.276009 +29 46 49.20512
 2018-Sep-25 05:54  m  04 48 40.348981 +29 46 49.47668
 2018-Sep-25 05:55  m  04 48 40.421945 +29 46 49.74828
 2018-Sep-25 05:56  m  04 48 40.494901 +29 46 50.01994
 2018-Sep-25 05:57  m  04 48 40.567849 +29 46 50.29165
 2018-Sep-25 05:58  m  04 48 40.640789 +29 46 50.56341
 2018-Sep-25 05:59  m  04 48 40.713720 +29 46 50.83521
 2018-Sep-25 06:00  m  04 48 40.786644 +29 46 51.10707
 2018-Sep-25 06:01  m  04 48 40.859560 +29 46 51.37898
 2018-Sep-25 06:02  m  04 48 40.932467 +29 46 51.65093
 2018-Sep-25 06:03  m  04 48 41.005367 +29 46 51.92294
 2018-Sep-25 06:04  m  04 48 41.078258 +29 46 52.19499
 2018-Sep-25 06:05  m  04 48 41.151140 +29 46 52.46709
 2018-Sep-25 06:06  m  04 48 41.224015 +29 46 52.73924
 2018-Sep-25 06:07  m  04 48 41.296881 +29 46 53.01144
 2018-Sep-25 06:08  m  04 48 41.369738 +29 46 53.28369
 2018-Sep-25 06:09  m  04 48 41.442588 +29 46 53.55598
 2018-Sep-25 06:10  m  04 48 41.515429 +29 46 53.82832
 2018-Sep-25 06:11  m  04 48 41.588261 +29 46 54.10070
 2018-Sep-25 06:12  m  04 48 41.661085 +29 46 54.37314
 2018-Sep-25 06:13  m  04 48 41.733900 +29 46 54.64562
 2018-Sep-25 06:14  m  04 48 41.806707 +29 46 54.91815
 2018-Sep-25 06:15  m  04 48 41.879505 +29 46 55.19072
 2018-Sep-25 06:16  m  04 48 41.952295 +29 46 55.46334
 2018-Sep-25 06:17  m  04 48 42.025076 +29 46 55.73600
 2018-Sep-25 06:18  m  04 48 42.097848 +29 46 56.00871
 2018-Sep-25 06:19  m  04 48 42.170612 +29 46 56.28146
 2018-Sep-25 06:20  m  04 48 42.243367 +29 46 56.55426
 2018-Sep-25 06:21  m  04 48 42.316113 +29 46 56.82711
 2018-Sep-25 06:22  m  04 48 42.388850 +29 46 57.09999
 2018-Sep-25 06:23  m  04 48 42.461578 +29 46 57.37293
 2018-Sep-25 06:24  m  04 48 42.534298 +29 46 57.64590
 2018-Sep-25 06:25  m  04 48 42.607008 +29 46 57.91892
 2018-Sep-25 06:26  m  04 48 42.679710 +29 46 58.19198
 2018-Sep-25 06:27  m  04 48 42.752402 +29 46 58.46509
